{"type": "FeatureCollection", "features": [ {"type": "Feature", "properties": {"norad_id": 66889, "name": "STARLINK-35852", "group": "last-30-days", "lat": 23.89638867934013, "lon": -178.9620280818831, "alt_km": 356.62433539614995, "timestamp": "2025-12-23T09:49:05.798519+00:00", "meta": {"OBJECT_NAME": "STARLINK-35852", "OBJECT_ID": "2025-283M", "EPOCH": "2025-12-22T22:00:03.000096", "MEAN_MOTION": 15.71773459, "ECCENTRICITY": 0.00013119, "INCLINATION": 53.1589, "RA_OF_ASC_NODE": 22.8715, "ARG_OF_PERICENTER": 91.4167, "MEAN_ANOMALY": 152.1325, "EPHEMERIS_TYPE": 0, "CLASSIFICATION_TYPE": "U", "NORAD_CAT_ID": 66889, "ELEMENT_SET_NO": 999, "REV_AT_EPOCH": 406, "BSTAR": -0.016341604, "MEAN_MOTION_DOT": -0.01878277, "MEAN_MOTION_DDOT": 0}, "tle": {"line1": "1 66889U 25283M   25356.91670139 -.01878277  00000+0 -16342-1 0  9992", "line2": "2 66889  53.1589  22.8715 0001311  91.4167 152.1325 15.71773459  4067"}}, "geometry": {"type": "Point", "coordinates": [-178.9620280818831, 23.89638867934013]}}, {"type": "Feature", "properties": {"norad_id": 66890, "name": "STARLINK-35885", "group": "last-30-days", "lat": 22.442687718703112, "lon": -177.60426009467648, "alt_km": 356.79319399976885, "timestamp": "2025-12-23T09:49:05.798530+00:00", "meta": {"OBJECT_NAME": "STARLINK-35885", "OBJECT_ID": "2025-283N", "EPOCH": "2025-12-22T22:00:03.000096", "MEAN_MOTION": 15.71776833, "ECCENTRICITY": 0.00012527, "INCLINATION": 53.1584, "RA_OF_ASC_NODE": 22.8679, "ARG_OF_PERICENTER": 104.0654, "MEAN_ANOMALY": 141.3992, "EPHEMERIS_TYPE": 0, "CLASSIFICATION_TYPE": "U", "NORAD_CAT_ID": 66890, "ELEMENT_SET_NO": 999, "REV_AT_EPOCH": 406, "BSTAR": -0.0163703, "MEAN_MOTION_DOT": -0.01881316, "MEAN_MOTION_DDOT": 0}, "tle": {"line1": "1 66890U 25283N   25356.91670139 -.01881316  00000+0 -16370-1 0  9993", "line2": "2 66890  53.1584  22.8679 0001252 104.0654 141.3992 15.71776833  4068"}}, "geometry": {"type": "Point", "coordinates": [-177.60426009467648, 22.442687718703112]}}, {"type": "Feature", "properties": {"norad_id": 66891, "name": "STARLINK-35855", "group": "last-30-days", "lat": 20.97741951561827, "lon": -176.27458980455674, "alt_km": 357.0456694841632, "timestamp": "2025-12-23T09:49:05.798540+00:00", "meta": {"OBJECT_NAME": "STARLINK-35855", "OBJECT_ID": "2025-283P", "EPOCH": "2025-12-22T22:00:03.000096", "MEAN_MOTION": 15.71772652, "ECCENTRICITY": 0.00013004, "INCLINATION": 53.1587, "RA_OF_ASC_NODE": 22.8636, "ARG_OF_PERICENTER": 102.5691, "MEAN_ANOMALY": 144.8161, "EPHEMERIS_TYPE": 0, "CLASSIFICATION_TYPE": "U", "NORAD_CAT_ID": 66891, "ELEMENT_SET_NO": 999, "REV_AT_EPOCH": 406, "BSTAR": -0.016342864, "MEAN_MOTION_DOT": -0.01878336, "MEAN_MOTION_DDOT": 0}, "tle": {"line1": "1 66891U 25283P   25356.91670139 -.01878336  00000+0 -16343-1 0  9992", "line2": "2 66891  53.1587  22.8636 0001300 102.5691 144.8161 15.71772652  4064"}}, "geometry": {"type": "Point", "coordinates": [-176.27458980455674, 20.97741951561827]}}, {"type": "Feature", "properties": {"norad_id": 66892, "name": "STARLINK-35883", "group": "last-30-days", "lat": 19.502338510800055, "lon": -174.9715681716374, "alt_km": 357.4132505570842, "timestamp": "2025-12-23T09:49:05.798550+00:00", "meta": {"OBJECT_NAME": "STARLINK-35883", "OBJECT_ID": "2025-283Q", "EPOCH": "2025-12-22T22:00:03.000096", "MEAN_MOTION": 15.71779022, "ECCENTRICITY": 0.0001192, "INCLINATION": 53.1587, "RA_OF_ASC_NODE": 22.8592, "ARG_OF_PERICENTER": 96.8095, "MEAN_ANOMALY": 152.4881, "EPHEMERIS_TYPE": 0, "CLASSIFICATION_TYPE": "U", "NORAD_CAT_ID": 66892, "ELEMENT_SET_NO": 999, "REV_AT_EPOCH": 400, "BSTAR": -0.016400552, "MEAN_MOTION_DOT": -0.01884425, "MEAN_MOTION_DDOT": 0}, "tle": {"line1": "1 66892U 25283Q   25356.91670139 -.01884425  00000+0 -16401-1 0  9994", "line2": "2 66892  53.1587  22.8592 0001192  96.8095 152.4881 15.71779022  4004"}}, "geometry": {"type": "Point", "coordinates": [-174.9715681716374, 19.502338510800055]}}, {"type": "Feature", "properties": {"norad_id": 66893, "name": "STARLINK-36033", "group": "last-30-days", "lat": 18.018125568374813, "lon": -173.69174512472605, "alt_km": 357.71609470514704, "timestamp": "2025-12-23T09:49:05.798560+00:00", "meta": {"OBJECT_NAME": "STARLINK-36033", "OBJECT_ID": "2025-283R", "EPOCH": "2025-12-22T22:00:03.000096", "MEAN_MOTION": 15.71772014, "ECCENTRICITY": 0.00012045, "INCLINATION": 53.1588, "RA_OF_ASC_NODE": 22.8553, "ARG_OF_PERICENTER": 91.8306, "MEAN_ANOMALY": 159.3893, "EPHEMERIS_TYPE": 0, "CLASSIFICATION_TYPE": "U", "NORAD_CAT_ID": 66893, "ELEMENT_SET_NO": 999, "REV_AT_EPOCH": 406, "BSTAR": -0.016349477, "MEAN_MOTION_DOT": -0.01878869, "MEAN_MOTION_DDOT": 0}, "tle": {"line1": "1 66893U 25283R   25356.91670139 -.01878869  00000+0 -16349-1 0  9991", "line2": "2 66893  53.1588  22.8553 0001204  91.8306 159.3893 15.71772014  4066"}}, "geometry": {"type": "Point", "coordinates": [-173.69174512472605, 18.018125568374813]}}, {"type": "Feature", "properties": {"norad_id": 66894, "name": "STARLINK-35718", "group": "last-30-days", "lat": 16.525315020049632, "lon": -172.4325885604722, "alt_km": 357.9610477514052, "timestamp": "2025-12-23T09:49:05.798570+00:00", "meta": {"OBJECT_NAME": "STARLINK-35718", "OBJECT_ID": "2025-283S", "EPOCH": "2025-12-22T22:00:03.000096", "MEAN_MOTION": 15.71776993, "ECCENTRICITY": 0.00012609, "INCLINATION": 53.1588, "RA_OF_ASC_NODE": 22.8521, "ARG_OF_PERICENTER": 91.2016, "MEAN_ANOMALY": 161.9285, "EPHEMERIS_TYPE": 0, "CLASSIFICATION_TYPE": "U", "NORAD_CAT_ID": 66894, "ELEMENT_SET_NO": 999, "REV_AT_EPOCH": 406, "BSTAR": -0.016370328, "MEAN_MOTION_DOT": -0.01881337, "MEAN_MOTION_DDOT": 0}, "tle": {"line1": "1 66894U 25283S   25356.91670139 -.01881337  00000+0 -16370-1 0  9990", "line2": "2 66894  53.1588  22.8521 0001260  91.2016 161.9285 15.71776993  4060"}}, "geometry": {"type": "Point", "coordinates": [-172.4325885604722, 16.525315020049632]}}, {"type": "Feature", "properties": {"norad_id": 66895, "name": "STARLINK-35971", "group": "last-30-days", "lat": 13.521348515129477, "lon": -169.97636949276188, "alt_km": 358.5653961349135, "timestamp": "2025-12-23T09:49:05.798582+00:00", "meta": {"OBJECT_NAME": "STARLINK-35971", "OBJECT_ID": "2025-283T", "EPOCH": "2025-12-22T22:00:03.000096", "MEAN_MOTION": 15.71774151, "ECCENTRICITY": 9.186e-05, "INCLINATION": 53.1586, "RA_OF_ASC_NODE": 22.8425, "ARG_OF_PERICENTER": 78.1733, "MEAN_ANOMALY": 178.797, "EPHEMERIS_TYPE": 0, "CLASSIFICATION_TYPE": "U", "NORAD_CAT_ID": 66895, "ELEMENT_SET_NO": 999, "REV_AT_EPOCH": 406, "BSTAR": -0.016386254, "MEAN_MOTION_DOT": -0.01882438, "MEAN_MOTION_DDOT": 0}, "tle": {"line1": "1 66895U 25283T   25356.91670139 -.01882438  00000+0 -16386-1 0  9991", "line2": "2 66895  53.1586  22.8425 0000918  78.1733 178.7970 15.71774151  4062"}}, "geometry": {"type": "Point", "coordinates": [-169.97636949276188, 13.521348515129477]}}, {"type": "Feature", "properties": {"norad_id": 66896, "name": "STARLINK-35791", "group": "last-30-days", "lat": 15.028589609526133, "lon": -171.1973996788393, "alt_km": 358.1180947839548, "timestamp": "2025-12-23T09:49:05.798595+00:00", "meta": {"OBJECT_NAME": "STARLINK-35791", "OBJECT_ID": "2025-283U", "EPOCH": "2025-12-22T22:00:03.000096", "MEAN_MOTION": 15.71778577, "ECCENTRICITY": 9.02e-05, "INCLINATION": 53.1587, "RA_OF_ASC_NODE": 22.8473, "ARG_OF_PERICENTER": 93.5748, "MEAN_ANOMALY": 161.4738, "EPHEMERIS_TYPE": 0, "CLASSIFICATION_TYPE": "U", "NORAD_CAT_ID": 66896, "ELEMENT_SET_NO": 999, "REV_AT_EPOCH": 406, "BSTAR": -0.016401289, "MEAN_MOTION_DOT": -0.01922504, "MEAN_MOTION_DDOT": 0}, "tle": {"line1": "1 66896U 25283U   25356.91670139 -.01922504  00000+0 -16401-1 0  9999", "line2": "2 66896  53.1587  22.8473 0000902  93.5748 161.4738 15.71778577  4064"}}, "geometry": {"type": "Point", "coordinates": [-171.1973996788393, 15.028589609526133]}}, {"type": "Feature", "properties": {"norad_id": 66897, "name": "STARLINK-36079", "group": "last-30-days", "lat": 12.006711596753293, "lon": -168.76780122259333, "alt_km": 358.77194142067765, "timestamp": "2025-12-23T09:49:05.798607+00:00", "meta": {"OBJECT_NAME": "STARLINK-36079", "OBJECT_ID": "2025-283V", "EPOCH": "2025-12-22T22:00:03.000096", "MEAN_MOTION": 15.71775803, "ECCENTRICITY": 0.00011747, "INCLINATION": 53.159, "RA_OF_ASC_NODE": 22.8393, "ARG_OF_PERICENTER": 90.6489, "MEAN_ANOMALY": 168.2342, "EPHEMERIS_TYPE": 0, "CLASSIFICATION_TYPE": "U", "NORAD_CAT_ID": 66897, "ELEMENT_SET_NO": 999, "REV_AT_EPOCH": 406, "BSTAR": -0.016370043, "MEAN_MOTION_DOT": -0.01881153, "MEAN_MOTION_DDOT": 0}, "tle": {"line1": "1 66897U 25283V   25356.91670139 -.01881153  00000+0 -16370-1 0  9999", "line2": "2 66897  53.1590  22.8393 0001174  90.6489 168.2342 15.71775803  4067"}}, "geometry": {"type": "Point", "coordinates": [-168.76780122259333, 12.006711596753293]}}, {"type": "Feature", "properties": {"norad_id": 66898, "name": "STARLINK-36065", "group": "last-30-days", "lat": 10.489578606404493, "lon": -167.57605066858932, "alt_km": 358.94699276715255, "timestamp": "2025-12-23T09:49:05.798619+00:00", "meta": {"OBJECT_NAME": "STARLINK-36065", "OBJECT_ID": "2025-283W", "EPOCH": "2025-12-22T22:00:03.000096", "MEAN_MOTION": 15.71776459, "ECCENTRICITY": 0.00012414, "INCLINATION": 53.159, "RA_OF_ASC_NODE": 22.8351, "ARG_OF_PERICENTER": 97.7684, "MEAN_ANOMALY": 163.0321, "EPHEMERIS_TYPE": 0, "CLASSIFICATION_TYPE": "U", "NORAD_CAT_ID": 66898, "ELEMENT_SET_NO": 999, "REV_AT_EPOCH": 406, "BSTAR": -0.016391558, "MEAN_MOTION_DOT": -0.01883394, "MEAN_MOTION_DDOT": 0}, "tle": {"line1": "1 66898U 25283W   25356.91670139 -.01883394  00000+0 -16392-1 0  9993", "line2": "2 66898  53.1590  22.8351 0001241  97.7684 163.0321 15.71776459  4060"}}, "geometry": {"type": "Point", "coordinates": [-167.57605066858932, 10.489578606404493]}}]}